[
    {
        "Altitude(m)": 607886.7424488468,
        "Argument of Periapsis(deg)": 0.0,
        "Eccentricity": 0.0,
        "Inclination(deg)": 60.0,
        "Latitude(deg)": 40.99858179579991,
        "Longitude(deg)": 99.97295160070573,
        "Mean Anomaly(deg)": 49.09089999999999,
        "RAAN(deg)": 170.00000000000003,
        "Satellite Name": "Test1 751",
        "Satellite Number": 751,
        "Semi-Major Axis(m)": 6980739.136638005,
        "Time(s)": 0
    },
    {
        "Altitude(m)": 607987.6567050959,
        "Argument of Periapsis(deg)": 0.00010418945913296404,
        "Eccentricity": 0.0,
        "Inclination(deg)": 60.0,
        "Latitude(deg)": 41.46367213788257,
        "Longitude(deg)": 100.47718007874147,
        "Mean Anomaly(deg)": 49.71100614546182,
        "RAAN(deg)": 169.99957995086027,
        "Satellite Name": "Test1 751",
        "Satellite Number": 751,
        "Semi-Major Axis(m)": 6980739.136638005,
        "Time(s)": 10
    }
]